FENGYUN 2B              
1 26382U 00032A   26061.52459237  .00000115  00000+0  00000+0 0  9993
2 26382  13.1665  17.6869 0004023 293.3501  77.5581  1.00079509 93864
TDRS 8                  
1 26388U 00034A   26061.68720431 -.00000206  00000+0  00000+0 0  9997
2 26388  12.5161  32.2098 0006156 306.8866 153.4916  1.00276827 94111
COSMOS 2371             
1 26394U 00036A   26061.45476373 -.00000090  00000+0  00000+0 0  9995
2 26394  13.9339   8.3001 0002003 212.5928 175.1685  1.00263520 93970
SL-12 R/B(2)            
1 26397U 00036D   26061.02067116  .00000048  00000+0  00000+0 0  9994
2 26397  13.9031   8.1823 0016118  71.5430 102.4861  1.00190235 46255
FENGYUN 2B AKM          
1 26460U 00032C   26061.06858874  .00000018  00000+0  00000+0 0  9991
2 26460  14.3771   7.0732 0022669  34.9991 325.1601  1.00192499121111
RADUGA-1 5              
1 26477U 00049A   26061.63002655 -.00000342  00000+0  00000+0 0  9999
2 26477  13.9070   8.8550 0001381  19.0824 102.1686  1.00244806 93350
NSS-11                  
1 26554U 00059A   26061.81711606  .00000009  00000+0  00000+0 0  9998
2 26554   1.8519  82.6926 0003160 261.3775 286.6692  1.00271445 40223
USA 153                 
1 26575U 00065A   26061.83377822 -.00000336  00000+0  00000+0 0  9992
2 26575  11.4425  36.2848 0002511 343.3755 215.5140  1.00270033 31866
AMC-6                   
1 26580U 00067A   26061.70402780  .00000072  00000+0  00000+0 0  9994
2 26580   0.0515 310.8126 0003150  26.2038 301.8393  1.00271099 92822
USA 157 (MILSTAR-2 2)   
1 26715U 01009A   26061.63432495  .00000099  00000+0  00000+0 0  9998
2 26715  11.4258  20.4130 0038217 183.5617  34.8158  1.00278724 31875
TITAN 4 CENTAUR R/B     
1 26716U 01009B   26060.75019893 -.00000313  00000+0  00000+0 0  9994
2 26716  12.5454  13.0556 0013450 144.9089 215.2067  1.00476013 25173
USA 159 (DSP 21)        
1 26880U 01033A   26061.45970787 -.00000308  00000+0  00000+0 0  9993
2 26880  12.6874  17.1829 0002281 242.9429  16.5978  1.00279769 31895
IUS R/B(2)              
1 26883U 01033D   26061.62463894 -.00000157  00000+0  00000+0 0  9993
2 26883  12.8202  17.4681 0007034   2.2539 357.7728  0.99904088 24727
COSMOS 2379             
1 26892U 01037A   26061.78752917 -.00000376  00000+0  00000+0 0  9994
2 26892  13.1724  15.0525 0006725 246.0189 307.1350  1.00322482 89799
SL-12 R/B(2)            
1 26895U 01037D   26061.31156119 -.00000299  00000+0  00000+0 0  9992
2 26895  13.1659  15.2793 0019302  77.1044 277.1818  1.00197751 89723
INTELSAT 902 (IS-902)   
1 26900U 01039A   26061.36430605 -.00000298  00000+0  00000+0 0  9990
2 26900   5.8472  73.0874 0004617 272.3578 255.7488  1.00270997 89625
SL-12 R/B(2)            
1 26939U 01045D   26060.50890329 -.00000164  00000+0  00000+0 0  9999
2 26939  13.8057  12.8953 0025814  24.7825  25.9609  1.00210049 89657
