[{"OBJECT_NAME":"FENGYUN 2B","OBJECT_ID":"2000-032A","EPOCH":"2026-03-02T12:35:24.780768","MEAN_MOTION":1.00079509,"ECCENTRICITY":0.0004023,"INCLINATION":13.1665,"RA_OF_ASC_NODE":17.6869,"ARG_OF_PERICENTER":293.3501,"MEAN_ANOMALY":77.5581,"EPHEMERIS_TYPE":0,"CLASSIFICATION_TYPE":"U","NORAD_CAT_ID":26382,"ELEMENT_SET_NO":999,"REV_AT_EPOCH":9386,"BSTAR":0,"MEAN_MOTION_DOT":1.15e-6,"MEAN_MOTION_DDOT":0},{"OBJECT_NAME":"TDRS 8","OBJECT_ID":"2000-034A","EPOCH":"2026-03-02T16:29:34.452384","MEAN_MOTION":1.00276827,"ECCENTRICITY":0.0006156,"INCLINATION":12.5161,"RA_OF_ASC_NODE":32.2098,"ARG_OF_PERICENTER":306.8866,"MEAN_ANOMALY":153.4916,"EPHEMERIS_TYPE":0,"CLASSIFICATION_TYPE":"U","NORAD_CAT_ID":26388,"ELEMENT_SET_NO":999,"REV_AT_EPOCH":9411,"BSTAR":0,"MEAN_MOTION_DOT":-2.06e-6,"MEAN_MOTION_DDOT":0},{"OBJECT_NAME":"COSMOS 2371","OBJECT_ID":"2000-036A","EPOCH":"2026-03-02T10:54:51.586272","MEAN_MOTION":1.0026352,"ECCENTRICITY":0.0002003,"INCLINATION":13.9339,"RA_OF_ASC_NODE":8.3001,"ARG_OF_PERICENTER":212.5928,"MEAN_ANOMALY":175.1685,"EPHEMERIS_TYPE":0,"CLASSIFICATION_TYPE":"U","NORAD_CAT_ID":26394,"ELEMENT_SET_NO":999,"REV_AT_EPOCH":9397,"BSTAR":0,"MEAN_MOTION_DOT":-9.0e-7,"MEAN_MOTION_DDOT":0},{"OBJECT_NAME":"SL-12 R/B(2)","OBJECT_ID":"2000-036D","EPOCH":"2026-03-02T00:29:45.988224","MEAN_MOTION":1.00190235,"ECCENTRICITY":0.00161181,"INCLINATION":13.9031,"RA_OF_ASC_NODE":8.1823,"ARG_OF_PERICENTER":71.543,"MEAN_ANOMALY":102.4861,"EPHEMERIS_TYPE":0,"CLASSIFICATION_TYPE":"U","NORAD_CAT_ID":26397,"ELEMENT_SET_NO":999,"REV_AT_EPOCH":4625,"BSTAR":0,"MEAN_MOTION_DOT":4.8e-7,"MEAN_MOTION_DDOT":0},{"OBJECT_NAME":"FENGYUN 2B AKM","OBJECT_ID":"2000-032C","EPOCH":"2026-03-02T01:38:46.067136","MEAN_MOTION":1.00192499,"ECCENTRICITY":0.0022669,"INCLINATION":14.3771,"RA_OF_ASC_NODE":7.0732,"ARG_OF_PERICENTER":34.9991,"MEAN_ANOMALY":325.1601,"EPHEMERIS_TYPE":0,"CLASSIFICATION_TYPE":"U","NORAD_CAT_ID":26460,"ELEMENT_SET_NO":999,"REV_AT_EPOCH":12111,"BSTAR":0,"MEAN_MOTION_DOT":1.8e-7,"MEAN_MOTION_DDOT":0},{"OBJECT_NAME":"RADUGA-1 5","OBJECT_ID":"2000-049A","EPOCH":"2026-03-02T15:07:14.293920","MEAN_MOTION":1.00244806,"ECCENTRICITY":0.0001381,"INCLINATION":13.907,"RA_OF_ASC_NODE":8.855,"ARG_OF_PERICENTER":19.0824,"MEAN_ANOMALY":102.1686,"EPHEMERIS_TYPE":0,"CLASSIFICATION_TYPE":"U","NORAD_CAT_ID":26477,"ELEMENT_SET_NO":999,"REV_AT_EPOCH":9335,"BSTAR":0,"MEAN_MOTION_DOT":-3.42e-6,"MEAN_MOTION_DDOT":0},{"OBJECT_NAME":"NSS-11","OBJECT_ID":"2000-059A","EPOCH":"2026-03-02T19:36:38.827584","MEAN_MOTION":1.00271445,"ECCENTRICITY":0.000316,"INCLINATION":1.8519,"RA_OF_ASC_NODE":82.6926,"ARG_OF_PERICENTER":261.3775,"MEAN_ANOMALY":286.6692,"EPHEMERIS_TYPE":0,"CLASSIFICATION_TYPE":"U","NORAD_CAT_ID":26554,"ELEMENT_SET_NO":999,"REV_AT_EPOCH":4022,"BSTAR":0,"MEAN_MOTION_DOT":9.0e-8,"MEAN_MOTION_DDOT":0},{"OBJECT_NAME":"USA 153","OBJECT_ID":"2000-065A","EPOCH":"2026-03-02T20:00:38.438208","MEAN_MOTION":1.00270033,"ECCENTRICITY":0.0002511,"INCLINATION":11.4425,"RA_OF_ASC_NODE":36.2848,"ARG_OF_PERICENTER":343.3755,"MEAN_ANOMALY":215.514,"EPHEMERIS_TYPE":0,"CLASSIFICATION_TYPE":"U","NORAD_CAT_ID":26575,"ELEMENT_SET_NO":999,"REV_AT_EPOCH":3186,"BSTAR":0,"MEAN_MOTION_DOT":-3.36e-6,"MEAN_MOTION_DDOT":0},{"OBJECT_NAME":"AMC-6","OBJECT_ID":"2000-067A","EPOCH":"2026-03-02T16:53:48.001920","MEAN_MOTION":1.00271099,"ECCENTRICITY":0.000315,"INCLINATION":0.0515,"RA_OF_ASC_NODE":310.8126,"ARG_OF_PERICENTER":26.2038,"MEAN_ANOMALY":301.8393,"EPHEMERIS_TYPE":0,"CLASSIFICATION_TYPE":"U","NORAD_CAT_ID":26580,"ELEMENT_SET_NO":999,"REV_AT_EPOCH":9282,"BSTAR":0,"MEAN_MOTION_DOT":7.2e-7,"MEAN_MOTION_DDOT":0},{"OBJECT_NAME":"USA 157 (MILSTAR-2 2)","OBJECT_ID":"2001-009A","EPOCH":"2026-03-02T15:13:25.675680","MEAN_MOTION":1.00278724,"ECCENTRICITY":0.0038217,"INCLINATION":11.4258,"RA_OF_ASC_NODE":20.413,"ARG_OF_PERICENTER":183.5617,"MEAN_ANOMALY":34.8158,"EPHEMERIS_TYPE":0,"CLASSIFICATION_TYPE":"U","NORAD_CAT_ID":26715,"ELEMENT_SET_NO":999,"REV_AT_EPOCH":3187,"BSTAR":0,"MEAN_MOTION_DOT":9.9e-7,"MEAN_MOTION_DDOT":0},{"OBJECT_NAME":"TITAN 4 CENTAUR R/B","OBJECT_ID":"2001-009B","EPOCH":"2026-03-01T18:00:17.187552","MEAN_MOTION":1.00476013,"ECCENTRICITY":0.00134507,"INCLINATION":12.5454,"RA_OF_ASC_NODE":13.0556,"ARG_OF_PERICENTER":144.9089,"MEAN_ANOMALY":215.2067,"EPHEMERIS_TYPE":0,"CLASSIFICATION_TYPE":"U","NORAD_CAT_ID":26716,"ELEMENT_SET_NO":999,"REV_AT_EPOCH":2517,"BSTAR":0,"MEAN_MOTION_DOT":-3.13e-6,"MEAN_MOTION_DDOT":0},{"OBJECT_NAME":"USA 159 (DSP 21)","OBJECT_ID":"2001-033A","EPOCH":"2026-03-02T11:01:58.759968","MEAN_MOTION":1.00279769,"ECCENTRICITY":0.00022814,"INCLINATION":12.6874,"RA_OF_ASC_NODE":17.1829,"ARG_OF_PERICENTER":242.9429,"MEAN_ANOMALY":16.5978,"EPHEMERIS_TYPE":0,"CLASSIFICATION_TYPE":"U","NORAD_CAT_ID":26880,"ELEMENT_SET_NO":999,"REV_AT_EPOCH":3189,"BSTAR":0,"MEAN_MOTION_DOT":-3.08e-6,"MEAN_MOTION_DDOT":0},{"OBJECT_NAME":"IUS R/B(2)","OBJECT_ID":"2001-033D","EPOCH":"2026-03-02T14:59:28.804416","MEAN_MOTION":0.99904088,"ECCENTRICITY":0.0007034,"INCLINATION":12.8202,"RA_OF_ASC_NODE":17.4681,"ARG_OF_PERICENTER":2.2539,"MEAN_ANOMALY":357.7728,"EPHEMERIS_TYPE":0,"CLASSIFICATION_TYPE":"U","NORAD_CAT_ID":26883,"ELEMENT_SET_NO":999,"REV_AT_EPOCH":2472,"BSTAR":0,"MEAN_MOTION_DOT":-1.57e-6,"MEAN_MOTION_DDOT":0},{"OBJECT_NAME":"COSMOS 2379","OBJECT_ID":"2001-037A","EPOCH":"2026-03-02T18:54:02.520288","MEAN_MOTION":1.00322482,"ECCENTRICITY":0.0006725,"INCLINATION":13.1724,"RA_OF_ASC_NODE":15.0525,"ARG_OF_PERICENTER":246.0189,"MEAN_ANOMALY":307.135,"EPHEMERIS_TYPE":0,"CLASSIFICATION_TYPE":"U","NORAD_CAT_ID":26892,"ELEMENT_SET_NO":999,"REV_AT_EPOCH":8979,"BSTAR":0,"MEAN_MOTION_DOT":-3.76e-6,"MEAN_MOTION_DDOT":0},{"OBJECT_NAME":"SL-12 R/B(2)","OBJECT_ID":"2001-037D","EPOCH":"2026-03-02T07:28:38.886816","MEAN_MOTION":1.00197751,"ECCENTRICITY":0.00193024,"INCLINATION":13.1659,"RA_OF_ASC_NODE":15.2793,"ARG_OF_PERICENTER":77.1044,"MEAN_ANOMALY":277.1818,"EPHEMERIS_TYPE":0,"CLASSIFICATION_TYPE":"U","NORAD_CAT_ID":26895,"ELEMENT_SET_NO":999,"REV_AT_EPOCH":8972,"BSTAR":0,"MEAN_MOTION_DOT":-2.99e-6,"MEAN_MOTION_DDOT":0},{"OBJECT_NAME":"INTELSAT 902 (IS-902)","OBJECT_ID":"2001-039A","EPOCH":"2026-03-02T08:44:36.042720","MEAN_MOTION":1.00270997,"ECCENTRICITY":0.00046178,"INCLINATION":5.8472,"RA_OF_ASC_NODE":73.0874,"ARG_OF_PERICENTER":272.3578,"MEAN_ANOMALY":255.7488,"EPHEMERIS_TYPE":0,"CLASSIFICATION_TYPE":"U","NORAD_CAT_ID":26900,"ELEMENT_SET_NO":999,"REV_AT_EPOCH":8962,"BSTAR":0,"MEAN_MOTION_DOT":-2.98e-6,"MEAN_MOTION_DDOT":0},{"OBJECT_NAME":"SL-12 R/B(2)","OBJECT_ID":"2001-045D","EPOCH":"2026-03-01T12:12:49.244256","MEAN_MOTION":1.00210049,"ECCENTRICITY":0.0025814,"INCLINATION":13.8057,"RA_OF_ASC_NODE":12.8953,"ARG_OF_PERICENTER":24.7825,"MEAN_ANOMALY":25.9609,"EPHEMERIS_TYPE":0,"CLASSIFICATION_TYPE":"U","NORAD_CAT_ID":26939,"ELEMENT_SET_NO":999,"REV_AT_EPOCH":8965,"BSTAR":0,"MEAN_MOTION_DOT":-1.64e-6,"MEAN_MOTION_DDOT":0}]
